[{"OBJECT_NAME":"STRIX-1","OBJECT_ID":"2022-113A","EPOCH":"2026-03-09T22:33:41.440608","MEAN_MOTION":15.35318085,"ECCENTRICITY":0.00036327,"INCLINATION":97.4624,"RA_OF_ASC_NODE":129.4671,"ARG_OF_PERICENTER":211.3613,"MEAN_ANOMALY":148.7414,"EPHEMERIS_TYPE":0,"CLASSIFICATION_TYPE":"U","NORAD_CAT_ID":53815,"ELEMENT_SET_NO":999,"REV_AT_EPOCH":19219,"BSTAR":0.00077819199,"MEAN_MOTION_DOT":0.00026675,"MEAN_MOTION_DDOT":0},{"OBJECT_NAME":"COSMOS 2251 DEB","OBJECT_ID":"1993-036BN","EPOCH":"2026-03-09T17:54:27.582912","MEAN_MOTION":15.31852549,"ECCENTRICITY":0.0043021,"INCLINATION":74.0291,"RA_OF_ASC_NODE":318.0178,"ARG_OF_PERICENTER":323.0874,"MEAN_ANOMALY":36.7369,"EPHEMERIS_TYPE":0,"CLASSIFICATION_TYPE":"U","NORAD_CAT_ID":33821,"ELEMENT_SET_NO":999,"REV_AT_EPOCH":76330,"BSTAR":0.0011195846,"MEAN_MOTION_DOT":0.00035571,"MEAN_MOTION_DDOT":0}]
